STARLINK-2632_new
1 18448C 21040W   21326.17897705  .00003361  00000-0  22516-3 0  3269
2 18448  53.0570  22.9267 0001201  58.8838 332.1739 15.06401874    17
STARLINK-2632_old
1 28448C 21040W   21325.12501667  .00005988  00000-0  40128-3 0  3257
2 28448  53.0567  27.6579 0001164  62.1510  10.1117 15.06383800    15
